STARLINK-36455          
1 67418U 26005Q   26036.50903234  .00077219  00000+0  13077-2 0  9997
2 67418  42.9998  62.4268 0001431 260.7087  99.3611 15.50610134  3745
STARLINK-36424          
1 67419U 26005R   26036.50868968  .00121663  00000+0  20442-2 0  9999
2 67419  42.9997  62.4237 0001334 252.7307 107.3407 15.50625233  3748
STARLINK-35564          
1 67420U 26005S   26036.50834699  .00103884  00000+0  17507-2 0  9998
2 67420  42.9997  62.4212 0001385 260.5939  99.4765 15.50619623  3741
STARLINK-36431          
1 67421U 26005T   26036.75002315 -.00146392  00000+0 -35578-2 0  9999
2 67421  43.0004  61.1705 0001116 260.4163 303.5683 15.40759672  4844
STARLINK-36418          
1 67422U 26005U   26036.50766102  .00126133  00000+0  21179-2 0  9995
2 67422  42.9996  62.4156 0001352 247.1512 112.9206 15.50624894  3748
STARLINK-36465          
1 67423U 26005V   26036.75002315  .00019839  00000+0  48175-3 0  9992
2 67423  43.0002  61.1098 0001314 309.4295 279.3581 15.40649381  4795
STARLINK-36362          
1 67424U 26005W   26036.75002315 -.02708864  00000+0 -68892-1 0  9996
2 67424  43.0004  61.0527 0000578 268.6098 343.7369 15.42907781  5055
STARLINK-36447          
1 67425U 26005X   26036.75002315 -.02083334  00000+0 -47893-1 0  9993
2 67425  43.0002  61.0104 0001017 268.8353   0.8482 15.45444942  5055
STARLINK-36146          
1 67426U 26005Y   26036.50628939  .00125098  00000+0  21009-2 0  9995
2 67426  43.0000  62.4050 0001276 269.8471  90.2243 15.50624338  3734
STARLINK-36459          
1 67427U 26005Z   26036.50594616  .00139304  00000+0  23339-2 0  9993
2 67427  43.0002  62.4014 0001317 267.0952  92.9757 15.50632465  3736
STARLINK-36464          
1 67428U 26005AA  26036.50526000  .00130908  00000+0  21963-2 0  9998
2 67428  43.0000  62.3956 0001329 259.6622 100.4088 15.50627185  3738
STARLINK-36513          
1 67429U 26005AB  26036.50491786  .00099479  00000+0  16778-2 0  9996
2 67429  42.9997  62.3929 0000881 254.9109 105.1654 15.50617249  3733
