CCSDS_OMM_VERS = 2.0
CREATION_DATE  = 
ORIGINATOR     = 

OBJECT_NAME    = STARLINK-36455
OBJECT_ID      = 2026-005Q
CENTER_NAME    = EARTH
REF_FRAME      = TEME
TIME_SYSTEM    = UTC
MEAN_ELEMENT_THEORY = SGP/SGP4

EPOCH          = 2026-02-05T12:13:00.394176
MEAN_MOTION    = 15.50610134
ECCENTRICITY   = .0001431
INCLINATION    = 42.9998
RA_OF_ASC_NODE = 62.4268
ARG_OF_PERICENTER = 260.7087
MEAN_ANOMALY   = 99.3611

EPHEMERIS_TYPE = 0
CLASSIFICATION_TYPE = U
NORAD_CAT_ID   = 67418
ELEMENT_SET_NO = 999
REV_AT_EPOCH   = 374
BSTAR          = .13077E-2
MEAN_MOTION_DOT = .77219E-3
MEAN_MOTION_DDOT = 0

CCSDS_OMM_VERS = 2.0
CREATION_DATE  = 
ORIGINATOR     = 

OBJECT_NAME    = STARLINK-36424
OBJECT_ID      = 2026-005R
CENTER_NAME    = EARTH
REF_FRAME      = TEME
TIME_SYSTEM    = UTC
MEAN_ELEMENT_THEORY = SGP/SGP4

EPOCH          = 2026-02-05T12:12:30.788352
MEAN_MOTION    = 15.50625233
ECCENTRICITY   = .0001334
INCLINATION    = 42.9997
RA_OF_ASC_NODE = 62.4237
ARG_OF_PERICENTER = 252.7307
MEAN_ANOMALY   = 107.3407

EPHEMERIS_TYPE = 0
CLASSIFICATION_TYPE = U
NORAD_CAT_ID   = 67419
ELEMENT_SET_NO = 999
REV_AT_EPOCH   = 374
BSTAR          = .20442E-2
MEAN_MOTION_DOT = .121663E-2
MEAN_MOTION_DDOT = 0

CCSDS_OMM_VERS = 2.0
CREATION_DATE  = 
ORIGINATOR     = 

OBJECT_NAME    = STARLINK-35564
OBJECT_ID      = 2026-005S
CENTER_NAME    = EARTH
REF_FRAME      = TEME
TIME_SYSTEM    = UTC
MEAN_ELEMENT_THEORY = SGP/SGP4

EPOCH          = 2026-02-05T12:12:01.179936
MEAN_MOTION    = 15.50619623
ECCENTRICITY   = .0001385
INCLINATION    = 42.9997
RA_OF_ASC_NODE = 62.4212
ARG_OF_PERICENTER = 260.5939
MEAN_ANOMALY   = 99.4765

EPHEMERIS_TYPE = 0
CLASSIFICATION_TYPE = U
NORAD_CAT_ID   = 67420
ELEMENT_SET_NO = 999
REV_AT_EPOCH   = 374
BSTAR          = .17507E-2
MEAN_MOTION_DOT = .103884E-2
MEAN_MOTION_DDOT = 0

CCSDS_OMM_VERS = 2.0
CREATION_DATE  = 
ORIGINATOR     = 

OBJECT_NAME    = STARLINK-36431
OBJECT_ID      = 2026-005T
CENTER_NAME    = EARTH
REF_FRAME      = TEME
TIME_SYSTEM    = UTC
MEAN_ELEMENT_THEORY = SGP/SGP4

EPOCH          = 2026-02-05T18:00:02.000160
MEAN_MOTION    = 15.40759672
ECCENTRICITY   = .00011162
INCLINATION    = 43.0004
RA_OF_ASC_NODE = 61.1705
ARG_OF_PERICENTER = 260.4163
MEAN_ANOMALY   = 303.5683

EPHEMERIS_TYPE = 0
CLASSIFICATION_TYPE = U
NORAD_CAT_ID   = 67421
ELEMENT_SET_NO = 999
REV_AT_EPOCH   = 484
BSTAR          = -.35577807E-2
MEAN_MOTION_DOT = -.146392E-2
MEAN_MOTION_DDOT = 0

CCSDS_OMM_VERS = 2.0
CREATION_DATE  = 
ORIGINATOR     = 

OBJECT_NAME    = STARLINK-36418
OBJECT_ID      = 2026-005U
CENTER_NAME    = EARTH
REF_FRAME      = TEME
TIME_SYSTEM    = UTC
MEAN_ELEMENT_THEORY = SGP/SGP4

EPOCH          = 2026-02-05T12:11:01.912128
MEAN_MOTION    = 15.50624894
ECCENTRICITY   = .0001352
INCLINATION    = 42.9996
RA_OF_ASC_NODE = 62.4156
ARG_OF_PERICENTER = 247.1512
MEAN_ANOMALY   = 112.9206

EPHEMERIS_TYPE = 0
CLASSIFICATION_TYPE = U
NORAD_CAT_ID   = 67422
ELEMENT_SET_NO = 999
REV_AT_EPOCH   = 374
BSTAR          = .21179E-2
MEAN_MOTION_DOT = .126133E-2
MEAN_MOTION_DDOT = 0

CCSDS_OMM_VERS = 2.0
CREATION_DATE  = 
ORIGINATOR     = 

OBJECT_NAME    = STARLINK-36465
OBJECT_ID      = 2026-005V
CENTER_NAME    = EARTH
REF_FRAME      = TEME
TIME_SYSTEM    = UTC
MEAN_ELEMENT_THEORY = SGP/SGP4

EPOCH          = 2026-02-05T18:00:02.000160
MEAN_MOTION    = 15.40649381
ECCENTRICITY   = .00013146
INCLINATION    = 43.0002
RA_OF_ASC_NODE = 61.1098
ARG_OF_PERICENTER = 309.4295
MEAN_ANOMALY   = 279.3581

EPHEMERIS_TYPE = 0
CLASSIFICATION_TYPE = U
NORAD_CAT_ID   = 67423
ELEMENT_SET_NO = 999
REV_AT_EPOCH   = 479
BSTAR          = .48174964E-3
MEAN_MOTION_DOT = .19839E-3
MEAN_MOTION_DDOT = 0

CCSDS_OMM_VERS = 2.0
CREATION_DATE  = 
ORIGINATOR     = 

OBJECT_NAME    = STARLINK-36362
OBJECT_ID      = 2026-005W
CENTER_NAME    = EARTH
REF_FRAME      = TEME
TIME_SYSTEM    = UTC
MEAN_ELEMENT_THEORY = SGP/SGP4

EPOCH          = 2026-02-05T18:00:02.000160
MEAN_MOTION    = 15.42907781
ECCENTRICITY   = .00005784
INCLINATION    = 43.0004
RA_OF_ASC_NODE = 61.0527
ARG_OF_PERICENTER = 268.6098
MEAN_ANOMALY   = 343.7369

EPHEMERIS_TYPE = 0
CLASSIFICATION_TYPE = U
NORAD_CAT_ID   = 67424
ELEMENT_SET_NO = 999
REV_AT_EPOCH   = 505
BSTAR          = -.68892182E-1
MEAN_MOTION_DOT = -.2708864E-1
MEAN_MOTION_DDOT = 0

CCSDS_OMM_VERS = 2.0
CREATION_DATE  = 
ORIGINATOR     = 

OBJECT_NAME    = STARLINK-36447
OBJECT_ID      = 2026-005X
CENTER_NAME    = EARTH
REF_FRAME      = TEME
TIME_SYSTEM    = UTC
MEAN_ELEMENT_THEORY = SGP/SGP4

EPOCH          = 2026-02-05T18:00:02.000160
MEAN_MOTION    = 15.45444942
ECCENTRICITY   = .00010178
INCLINATION    = 43.0002
RA_OF_ASC_NODE = 61.0104
ARG_OF_PERICENTER = 268.8353
MEAN_ANOMALY   = 0.8482

EPHEMERIS_TYPE = 0
CLASSIFICATION_TYPE = U
NORAD_CAT_ID   = 67425
ELEMENT_SET_NO = 999
REV_AT_EPOCH   = 505
BSTAR          = -.47892814E-1
MEAN_MOTION_DOT = -.2083334E-1
MEAN_MOTION_DDOT = 0

CCSDS_OMM_VERS = 2.0
CREATION_DATE  = 
ORIGINATOR     = 

OBJECT_NAME    = STARLINK-36146
OBJECT_ID      = 2026-005Y
CENTER_NAME    = EARTH
REF_FRAME      = TEME
TIME_SYSTEM    = UTC
MEAN_ELEMENT_THEORY = SGP/SGP4

EPOCH          = 2026-02-05T12:09:03.403296
MEAN_MOTION    = 15.50624338
ECCENTRICITY   = .0001276
INCLINATION    = 43.0000
RA_OF_ASC_NODE = 62.4050
ARG_OF_PERICENTER = 269.8471
MEAN_ANOMALY   = 90.2243

EPHEMERIS_TYPE = 0
CLASSIFICATION_TYPE = U
NORAD_CAT_ID   = 67426
ELEMENT_SET_NO = 999
REV_AT_EPOCH   = 373
BSTAR          = .21009E-2
MEAN_MOTION_DOT = .125098E-2
MEAN_MOTION_DDOT = 0

CCSDS_OMM_VERS = 2.0
CREATION_DATE  = 
ORIGINATOR     = 

OBJECT_NAME    = STARLINK-36459
OBJECT_ID      = 2026-005Z
CENTER_NAME    = EARTH
REF_FRAME      = TEME
TIME_SYSTEM    = UTC
MEAN_ELEMENT_THEORY = SGP/SGP4

EPOCH          = 2026-02-05T12:08:33.748224
MEAN_MOTION    = 15.50632465
ECCENTRICITY   = .0001317
INCLINATION    = 43.0002
RA_OF_ASC_NODE = 62.4014
ARG_OF_PERICENTER = 267.0952
MEAN_ANOMALY   = 92.9757

EPHEMERIS_TYPE = 0
CLASSIFICATION_TYPE = U
NORAD_CAT_ID   = 67427
ELEMENT_SET_NO = 999
REV_AT_EPOCH   = 373
BSTAR          = .23339E-2
MEAN_MOTION_DOT = .139304E-2
MEAN_MOTION_DDOT = 0

CCSDS_OMM_VERS = 2.0
CREATION_DATE  = 
ORIGINATOR     = 

OBJECT_NAME    = STARLINK-36464
OBJECT_ID      = 2026-005AA
CENTER_NAME    = EARTH
REF_FRAME      = TEME
TIME_SYSTEM    = UTC
MEAN_ELEMENT_THEORY = SGP/SGP4

EPOCH          = 2026-02-05T12:07:34.464000
MEAN_MOTION    = 15.50627185
ECCENTRICITY   = .0001329
INCLINATION    = 43.0000
RA_OF_ASC_NODE = 62.3956
ARG_OF_PERICENTER = 259.6622
MEAN_ANOMALY   = 100.4088

EPHEMERIS_TYPE = 0
CLASSIFICATION_TYPE = U
NORAD_CAT_ID   = 67428
ELEMENT_SET_NO = 999
REV_AT_EPOCH   = 373
BSTAR          = .21963E-2
MEAN_MOTION_DOT = .130908E-2
MEAN_MOTION_DDOT = 0

CCSDS_OMM_VERS = 2.0
CREATION_DATE  = 
ORIGINATOR     = 

OBJECT_NAME    = STARLINK-36513
OBJECT_ID      = 2026-005AB
CENTER_NAME    = EARTH
REF_FRAME      = TEME
TIME_SYSTEM    = UTC
MEAN_ELEMENT_THEORY = SGP/SGP4

EPOCH          = 2026-02-05T12:07:04.903104
MEAN_MOTION    = 15.50617249
ECCENTRICITY   = .0000881
INCLINATION    = 42.9997
RA_OF_ASC_NODE = 62.3929
ARG_OF_PERICENTER = 254.9109
MEAN_ANOMALY   = 105.1654

EPHEMERIS_TYPE = 0
CLASSIFICATION_TYPE = U
NORAD_CAT_ID   = 67429
ELEMENT_SET_NO = 999
REV_AT_EPOCH   = 373
BSTAR          = .16778E-2
MEAN_MOTION_DOT = .99479E-3
MEAN_MOTION_DDOT = 0

